{"type":"FeatureCollection","features":[{"type":"Feature","geometry":{"type":"MultiPolygon","coordinates":[[[[79.7152,9.5295],[79.7201,9.4744],[79.655,9.5051],[79.6705,9.554],[79.7152,9.5295]]],[[[80.6216,9.4595],[80.6135,9.4566],[80.4725,9.5212],[80.447,9.5748],[80.3321,9.6495],[80.2955,9.6913],[80.255,9.6146],[80.1697,9.6565],[80.1843,9.5955],[80.0766,9.6572],[80.0193,9.6499],[79.9638,9.7014],[79.9395,9.6961],[79.9052,9.7613],[79.9543,9.7983],[80.0366,9.8181],[80.1117,9.8108],[80.2121,9.8358],[80.2538,9.8235],[80.267,9.7932],[80.3614,9.6646],[80.5498,9.5121],[80.6216,9.4595]]],[[[79.9824,9.6222],[79.9622,9.6142],[79.8688,9.6391],[79.8409,9.6979],[79.8835,9.6995],[79.9064,9.6718],[79.9824,9.6222]]]]},"properties":{"district":"Jaffna","iso":"LK-41"}},{"type":"Feature","geometry":{"type":"Polygon","coordinates":[[[80.255,9.6146],[80.2955,9.6913],[80.3321,9.6495],[80.447,9.5748],[80.4725,9.5212],[80.6135,9.4566],[80.5864,9.4083],[80.5854,9.3627],[80.532,9.4052],[80.5187,9.3451],[80.4078,9.3395],[80.3874,9.3001],[80.3213,9.3085],[80.2337,9.2951],[80.1918,9.2373],[80.1154,9.2091],[80.1228,9.2974],[80.0634,9.3309],[80.0536,9.3896],[80.1451,9.4364],[80.186,9.4856],[80.143,9.5592],[80.2406,9.5203],[80.286,9.454],[80.3325,9.4553],[80.3895,9.484],[80.3847,9.5132],[80.3421,9.561],[80.255,9.6146]]]},"properties":{"district":"Kilinochchi","iso":"LK-42"}},{"type":"Feature","geometry":{"type":"MultiPolygon","coordinates":[[[[80.1154,9.2091],[80.1918,9.2373],[80.1955,9.176],[80.2257,9.1132],[80.22,9.0548],[80.1949,9.0459],[80.1762,8.9966],[80.175,8.9503],[80.3401,8.959],[80.3802,8.9364],[80.4025,8.8569],[80.2974,8.8203],[80.2297,8.8279],[80.1942,8.7335],[80.2354,8.6804],[80.0553,8.637],[80.0504,8.5219],[80.0324,8.5272],[79.9198,8.5673],[79.9409,8.6161],[79.9598,8.7241],[79.9155,8.8263],[79.9282,8.9181],[79.9921,8.995],[80.0386,9.0192],[80.072,9.0783],[80.0754,9.1246],[80.1154,9.2091]]],[[[79.8907,8.9556],[79.8418,9.0122],[79.7739,9.057],[79.6981,9.0829],[79.7313,9.1078],[79.8513,9.0786],[79.9026,9.036],[79.8827,9.0131],[79.9265,8.9825],[79.8907,8.9556]]]]},"properties":{"district":"Mannar","iso":"LK-43"}},{"type":"Feature","geometry":{"type":"Polygon","coordinates":[[[80.6135,9.4566],[80.6216,9.4595],[80.6651,9.4045],[80.7921,9.3124],[80.8446,9.231],[80.9016,9.0485],[80.8766,9.0254],[80.9269,8.9921],[80.8697,8.9595],[80.7658,8.937],[80.787,9.0102],[80.6916,9.0745],[80.6521,9.0782],[80.6465,9.117],[80.5817,9.126],[80.53,9.0761],[80.4912,9.1176],[80.4262,9.0909],[80.4338,9.03],[80.3401,8.959],[80.175,8.9503],[80.1762,8.9966],[80.1949,9.0459],[80.22,9.0548],[80.2257,9.1132],[80.1955,9.176],[80.1918,9.2373],[80.2337,9.2951],[80.3213,9.3085],[80.3874,9.3001],[80.4078,9.3395],[80.5187,9.3451],[80.532,9.4052],[80.5854,9.3627],[80.5864,9.4083],[80.6135,9.4566]]]},"properties":{"district":"Mullaitivu","iso":"LK-45"}},{"type":"Feature","geometry":{"type":"Polygon","coordinates":[[[80.2354,8.6804],[80.1942,8.7335],[80.2297,8.8279],[80.2974,8.8203],[80.4025,8.8569],[80.3802,8.9364],[80.3401,8.959],[80.4338,9.03],[80.4262,9.0909],[80.4912,9.1176],[80.53,9.0761],[80.5817,9.126],[80.6465,9.117],[80.6521,9.0782],[80.6916,9.0745],[80.787,9.0102],[80.7658,8.937],[80.753,8.9051],[80.6675,8.8714],[80.5954,8.8697],[80.6513,8.8034],[80.57,8.7004],[80.5067,8.6584],[80.4513,8.6925],[80.381,8.6218],[80.38,8.5838],[80.3323,8.5462],[80.2885,8.5606],[80.2719,8.6134],[80.247,8.6183],[80.2354,8.6804]]]},"properties":{"district":"Vavuniya","iso":"LK-44"}},{"type":"Feature","geometry":{"type":"Polygon","coordinates":[[[79.9876,6.4404],[80.011,6.4375],[80.1138,6.386],[80.1222,6.3712],[80.2074,6.3596],[80.2411,6.3766],[80.2936,6.3261],[80.2902,6.3918],[80.3813,6.4256],[80.4191,6.3924],[80.4953,6.3676],[80.4606,6.3487],[80.4957,6.2996],[80.4392,6.2546],[80.4267,6.2142],[80.3825,6.1534],[80.4061,6.114],[80.4108,6.0691],[80.3818,5.9653],[80.3149,5.9914],[80.2646,5.9986],[80.1914,6.0427],[80.1259,6.1],[80.063,6.1907],[80.033,6.2694],[80.0378,6.2928],[79.9876,6.4404]]]},"properties":{"district":"Galle","iso":"LK-31"}},{"type":"Feature","geometry":{"type":"Polygon","coordinates":[[[80.6701,6.306],[80.6953,6.3083],[80.798,6.2671],[80.8579,6.272],[80.882,6.2463],[80.9459,6.2362],[80.9214,6.2965],[81.0182,6.3447],[81.0075,6.3692],[81.0708,6.4207],[81.1369,6.4211],[81.1814,6.4063],[81.2353,6.3414],[81.2755,6.3663],[81.3673,6.3906],[81.4276,6.4181],[81.4721,6.4081],[81.4821,6.4958],[81.6083,6.58],[81.638,6.5422],[81.7079,6.5107],[81.6191,6.4166],[81.5569,6.3672],[81.5035,6.3499],[81.4813,6.3107],[81.4275,6.2841],[81.3949,6.2468],[81.3415,6.2235],[81.3241,6.1988],[81.2426,6.1817],[81.1785,6.1555],[81.1311,6.1212],[81.0009,6.1012],[80.9433,6.0838],[80.8632,6.0436],[80.819,6.0415],[80.7771,6.0048],[80.7241,5.9787],[80.6896,5.9947],[80.6615,6.0524],[80.6937,6.0758],[80.6466,6.1408],[80.611,6.2072],[80.6701,6.306]]]},"properties":{"district":"Hambantota","iso":"LK-33"}},{"type":"Feature","geometry":{"type":"Polygon","coordinates":[[[80.3818,5.9653],[80.4108,6.0691],[80.4061,6.114],[80.3825,6.1534],[80.4267,6.2142],[80.4392,6.2546],[80.4957,6.2996],[80.4606,6.3487],[80.4953,6.3676],[80.5338,6.3882],[80.6188,6.3963],[80.6112,6.3459],[80.6613,6.3538],[80.6701,6.306],[80.611,6.2072],[80.6466,6.1408],[80.6937,6.0758],[80.6615,6.0524],[80.6896,5.9947],[80.7241,5.9787],[80.7131,5.9609],[80.573,5.9376],[80.4743,5.9374],[80.4539,5.9633],[80.3818,5.9653]]]},"properties":{"district":"Matara","iso":"LK-32"}},{"type":"Feature","geometry":{"type":"Polygon","coordinates":[[[81.7079,6.5107],[81.638,6.5422],[81.6083,6.58],[81.6287,6.913],[81.6372,6.96],[81.6072,7.0259],[81.6142,7.0685],[81.5154,7.103],[81.5001,7.1548],[81.5224,7.1976],[81.5531,7.2176],[81.4908,7.3378],[81.4724,7.393],[81.4768,7.4499],[81.4564,7.4584],[81.3737,7.3976],[81.3864,7.3709],[81.3545,7.3375],[81.3193,7.333],[81.323,7.2631],[81.2943,7.2462],[81.2705,7.2769],[81.2639,7.3077],[81.2037,7.368],[81.1887,7.4383],[81.2072,7.5365],[81.1879,7.5741],[81.1316,7.5562],[81.0763,7.5121],[81.0418,7.5053],[81.0155,7.5529],[81.0133,7.5959],[80.9779,7.625],[80.9947,7.6615],[80.9891,7.7217],[81.0944,7.7252],[81.1176,7.6899],[81.1979,7.6611],[81.2383,7.678],[81.2413,7.7391],[81.3261,7.7334],[81.3678,7.6673],[81.4456,7.642],[81.4335,7.57],[81.452,7.5428],[81.5182,7.5087],[81.6192,7.5081],[81.6606,7.4725],[81.661,7.4037],[81.725,7.4553],[81.7764,7.4819],[81.8144,7.4804],[81.8658,7.3244],[81.8581,7.1005],[81.879,7.0223],[81.8454,6.9106],[81.8191,6.7884],[81.826,6.7642],[81.773,6.6717],[81.7777,6.6469],[81.7079,6.5107]]]},"properties":{"district":"Ampara","iso":"LK-52"}},{"type":"Feature","geometry":{"type":"Polygon","coordinates":[[[80.0324,8.5272],[80.0504,8.5219],[80.0553,8.637],[80.2354,8.6804],[80.247,8.6183],[80.2719,8.6134],[80.2885,8.5606],[80.3323,8.5462],[80.38,8.5838],[80.381,8.6218],[80.4513,8.6925],[80.5067,8.6584],[80.57,8.7004],[80.6513,8.8034],[80.5954,8.8697],[80.6675,8.8714],[80.753,8.9051],[80.8123,8.9153],[80.8873,8.8694],[80.9089,8.8365],[80.8788,8.7527],[80.9116,8.6892],[80.8917,8.6367],[80.944,8.5518],[80.9633,8.4857],[80.9273,8.3735],[80.9242,8.3369],[80.8991,8.2809],[80.8044,8.2785],[80.7854,8.2041],[80.7594,8.1505],[80.7561,8.0123],[80.7059,7.9918],[80.6541,7.9152],[80.5998,7.8558],[80.4998,7.8164],[80.4611,7.9453],[80.426,7.9629],[80.4194,8.0436],[80.37,8.0578],[80.3172,8.1122],[80.1655,8.1641],[80.1019,8.1973],[80.0378,8.2379],[80.0001,8.2285],[79.9748,8.3371],[79.9528,8.3694],[80.0152,8.4407],[80.0428,8.4934],[80.0324,8.5272]]]},"properties":{"district":"Anuradhapura","iso":"LK-71"}},{"type":"Feature","geometry":{"type":"Polygon","coordinates":[[[80.9779,7.625],[81.0133,7.5959],[81.0155,7.5529],[81.0418,7.5053],[81.0763,7.5121],[81.1316,7.5562],[81.1879,7.5741],[81.2072,7.5365],[81.1887,7.4383],[81.2037,7.368],[81.2639,7.3077],[81.2705,7.2769],[81.2069,7.2015],[81.13,7.1404],[81.1687,7.0841],[81.2148,7.0952],[81.2417,7.0532],[81.2448,7.0089],[81.2038,6.9214],[81.1294,6.8799],[81.1374,6.8387],[81.0658,6.8137],[81.0648,6.7618],[81.085,6.728],[81.0647,6.6998],[81.0648,6.6332],[81.0177,6.5505],[80.9956,6.5751],[80.9993,6.615],[80.928,6.6876],[80.8574,6.6575],[80.8128,6.7053],[80.8549,6.7194],[80.8129,6.762],[80.8084,6.7919],[80.8375,6.8451],[80.81,6.9017],[80.8354,6.9558],[80.8622,6.9782],[80.9195,6.9909],[80.9292,7.0382],[80.9556,7.0631],[80.9613,7.1571],[80.9458,7.2004],[80.9729,7.1963],[81.0165,7.2334],[80.9763,7.3629],[80.9827,7.3937],[80.9742,7.4884],[80.9779,7.625]]]},"properties":{"district":"Badulla","iso":"LK-81"}},{"type":"Feature","geometry":{"type":"Polygon","coordinates":[[[81.8144,7.4804],[81.7764,7.4819],[81.725,7.4553],[81.661,7.4037],[81.6606,7.4725],[81.6192,7.5081],[81.5182,7.5087],[81.452,7.5428],[81.4335,7.57],[81.4456,7.642],[81.3678,7.6673],[81.3261,7.7334],[81.2413,7.7391],[81.225,7.8235],[81.2369,7.9198],[81.2893,7.9466],[81.3401,7.957],[81.3064,8.0294],[81.3116,8.252],[81.3538,8.2693],[81.4078,8.2485],[81.4729,8.0426],[81.5311,7.9833],[81.5813,7.8451],[81.6199,7.8288],[81.6433,7.7874],[81.699,7.7531],[81.7562,7.6617],[81.7968,7.5691],[81.8144,7.4804]]]},"properties":{"district":"Batticaloa","iso":"LK-51"}},{"type":"Feature","geometry":{"type":"Polygon","coordinates":[[[81.6083,6.58],[81.4821,6.4958],[81.4721,6.4081],[81.4276,6.4181],[81.3673,6.3906],[81.2755,6.3663],[81.2353,6.3414],[81.1814,6.4063],[81.1369,6.4211],[81.0708,6.4207],[81.0075,6.3692],[81.0182,6.3447],[80.9214,6.2965],[80.897,6.3493],[80.8654,6.357],[80.8388,6.4017],[80.8431,6.4561],[80.8278,6.4901],[80.8636,6.5497],[80.8756,6.6106],[80.928,6.6876],[80.9993,6.615],[80.9956,6.5751],[81.0177,6.5505],[81.0648,6.6332],[81.0647,6.6998],[81.085,6.728],[81.0648,6.7618],[81.0658,6.8137],[81.1374,6.8387],[81.1294,6.8799],[81.2038,6.9214],[81.2448,7.0089],[81.2417,7.0532],[81.2148,7.0952],[81.1687,7.0841],[81.13,7.1404],[81.2069,7.2015],[81.2705,7.2769],[81.2943,7.2462],[81.323,7.2631],[81.3193,7.333],[81.3545,7.3375],[81.3864,7.3709],[81.3737,7.3976],[81.4564,7.4584],[81.4768,7.4499],[81.4724,7.393],[81.4908,7.3378],[81.5531,7.2176],[81.5224,7.1976],[81.5001,7.1548],[81.5154,7.103],[81.6142,7.0685],[81.6072,7.0259],[81.6372,6.96],[81.6287,6.913],[81.6083,6.58]]]},"properties":{"district":"Monaragala","iso":"LK-82"}},{"type":"Feature","geometry":{"type":"Polygon","coordinates":[[[81.2413,7.7391],[81.2383,7.678],[81.1979,7.6611],[81.1176,7.6899],[81.0944,7.7252],[80.9891,7.7217],[80.922,7.7083],[80.8836,7.7151],[80.8093,7.6717],[80.7788,7.6779],[80.7612,7.7922],[80.7956,7.8049],[80.8196,7.9245],[80.84,7.9722],[80.7561,8.0123],[80.7594,8.1505],[80.7854,8.2041],[80.8044,8.2785],[80.8991,8.2809],[80.9242,8.3369],[80.9818,8.3095],[80.9888,8.2731],[81.0363,8.2789],[81.2044,8.2269],[81.2015,8.1971],[81.2345,8.1741],[81.2881,8.2611],[81.3116,8.252],[81.3064,8.0294],[81.3401,7.957],[81.2893,7.9466],[81.2369,7.9198],[81.225,7.8235],[81.2413,7.7391]]]},"properties":{"district":"Polonnaruwa","iso":"LK-72"}},{"type":"Feature","geometry":{"type":"Polygon","coordinates":[[[79.8699,6.9793],[79.8834,6.9543],[79.9444,6.9383],[79.9934,6.944],[80.0203,6.9247],[80.0932,6.9123],[80.0985,6.9515],[80.1245,6.9747],[80.1792,6.9777],[80.2182,6.9726],[80.2117,6.9179],[80.1889,6.8995],[80.1777,6.8158],[80.1164,6.8052],[80.0754,6.8153],[80.0137,6.7888],[79.9907,6.7624],[79.9443,6.7492],[79.8927,6.7545],[79.8996,6.7164],[79.863,6.8247],[79.8404,6.9383],[79.8699,6.9793]]]},"properties":{"district":"Colombo","iso":"LK-11"}},{"type":"Feature","geometry":{"type":"Polygon","coordinates":[[[80.1792,6.9777],[80.1245,6.9747],[80.0985,6.9515],[80.0932,6.9123],[80.0203,6.9247],[79.9934,6.944],[79.9444,6.9383],[79.8834,6.9543],[79.8699,6.9793],[79.8463,7.0901],[79.8709,7.1212],[79.8656,7.1695],[79.8365,7.195],[79.842,7.2734],[79.9416,7.2765],[80.02,7.3177],[80.0592,7.2839],[80.1242,7.3305],[80.1956,7.2582],[80.1815,7.1936],[80.1534,7.1832],[80.1651,7.1264],[80.2092,7.135],[80.1629,7.0587],[80.1792,6.9777]]]},"properties":{"district":"Gampaha","iso":"LK-12"}},{"type":"Feature","geometry":{"type":"Polygon","coordinates":[[[80.3813,6.4256],[80.2902,6.3918],[80.2936,6.3261],[80.2411,6.3766],[80.2074,6.3596],[80.1222,6.3712],[80.1138,6.386],[80.011,6.4375],[79.9876,6.4404],[79.9815,6.5116],[79.9353,6.6414],[79.8996,6.7164],[79.8927,6.7545],[79.9443,6.7492],[79.9907,6.7624],[80.0137,6.7888],[80.0754,6.8153],[80.1164,6.8052],[80.1777,6.8158],[80.1987,6.7273],[80.2417,6.6703],[80.2495,6.637],[80.2825,6.6179],[80.2955,6.5613],[80.3813,6.4256]]]},"properties":{"district":"Kalutara","iso":"LK-13"}},{"type":"Feature","geometry":{"type":"Polygon","coordinates":[[[80.2117,6.9179],[80.2182,6.9726],[80.1792,6.9777],[80.1629,7.0587],[80.2092,7.135],[80.1651,7.1264],[80.1534,7.1832],[80.1815,7.1936],[80.1956,7.2582],[80.2548,7.3045],[80.3382,7.3212],[80.3569,7.3866],[80.3923,7.3965],[80.4221,7.3552],[80.4265,7.3323],[80.4814,7.2848],[80.5225,7.2345],[80.5126,7.213],[80.5466,7.1667],[80.5005,7.128],[80.4558,7.1221],[80.4634,7.0284],[80.433,6.9136],[80.4913,6.8932],[80.496,6.8317],[80.424,6.8398],[80.4,6.8597],[80.3287,6.8363],[80.2849,6.8555],[80.2508,6.9015],[80.2117,6.9179]]]},"properties":{"district":"Kegalle","iso":"LK-92"}},{"type":"Feature","geometry":{"type":"Polygon","coordinates":[[[80.1019,8.1973],[80.1655,8.1641],[80.3172,8.1122],[80.37,8.0578],[80.4194,8.0436],[80.426,7.9629],[80.4611,7.9453],[80.4998,7.8164],[80.5495,7.7053],[80.5491,7.6422],[80.5779,7.605],[80.5527,7.5511],[80.5738,7.5087],[80.5663,7.4575],[80.5062,7.3867],[80.4221,7.3552],[80.3923,7.3965],[80.3569,7.3866],[80.3382,7.3212],[80.2548,7.3045],[80.1956,7.2582],[80.1242,7.3305],[80.0592,7.2839],[80.02,7.3177],[79.9416,7.2765],[79.9375,7.3493],[79.9053,7.5058],[79.9057,7.6166],[79.9239,7.6556],[79.9633,7.6868],[79.9616,7.7179],[79.9987,7.7431],[80.0053,7.8267],[80.0663,7.8731],[80.0755,7.9158],[80.1484,7.9417],[80.1533,8.0662],[80.1153,8.096],[80.1019,8.1973]]]},"properties":{"district":"Kurunegala","iso":"LK-61"}},{"type":"Feature","geometry":{"type":"Polygon","coordinates":[[[79.9198,8.5673],[80.0324,8.5272],[80.0428,8.4934],[80.0152,8.4407],[79.9528,8.3694],[79.9748,8.3371],[80.0001,8.2285],[80.0378,8.2379],[80.1019,8.1973],[80.1153,8.096],[80.1533,8.0662],[80.1484,7.9417],[80.0755,7.9158],[80.0663,7.8731],[80.0053,7.8267],[79.9987,7.7431],[79.9616,7.7179],[79.9633,7.6868],[79.9239,7.6556],[79.9057,7.6166],[79.9053,7.5058],[79.9375,7.3493],[79.9416,7.2765],[79.842,7.2734],[79.7893,7.5389],[79.7996,7.6819],[79.7844,7.7752],[79.7451,7.9341],[79.7061,8.057],[79.7061,8.147],[79.6927,8.2107],[79.7399,8.1944],[79.732,8.0849],[79.7497,8.0612],[79.7466,7.9939],[79.8153,7.9764],[79.8364,8.005],[79.7932,8.0661],[79.8356,8.1371],[79.8175,8.1741],[79.8104,8.2389],[79.8466,8.351],[79.8425,8.4177],[79.8635,8.4514],[79.8709,8.5364],[79.9198,8.5673]]]},"properties":{"district":"Puttalam","iso":"LK-62"}},{"type":"Feature","geometry":{"type":"Polygon","coordinates":[[[80.4953,6.3676],[80.4191,6.3924],[80.3813,6.4256],[80.2955,6.5613],[80.2825,6.6179],[80.2495,6.637],[80.2417,6.6703],[80.1987,6.7273],[80.1777,6.8158],[80.1889,6.8995],[80.2117,6.9179],[80.2508,6.9015],[80.2849,6.8555],[80.3287,6.8363],[80.4,6.8597],[80.424,6.8398],[80.496,6.8317],[80.501,6.7786],[80.6538,6.7512],[80.7448,6.7583],[80.8084,6.7919],[80.8129,6.762],[80.8549,6.7194],[80.8128,6.7053],[80.8574,6.6575],[80.928,6.6876],[80.8756,6.6106],[80.8636,6.5497],[80.8278,6.4901],[80.8431,6.4561],[80.8388,6.4017],[80.8654,6.357],[80.897,6.3493],[80.9214,6.2965],[80.9459,6.2362],[80.882,6.2463],[80.8579,6.272],[80.798,6.2671],[80.6953,6.3083],[80.6701,6.306],[80.6613,6.3538],[80.6112,6.3459],[80.6188,6.3963],[80.5338,6.3882],[80.4953,6.3676]]]},"properties":{"district":"Ratnapura","iso":"LK-91"}},{"type":"Feature","geometry":{"type":"Polygon","coordinates":[[[80.9742,7.4884],[80.9827,7.3937],[80.9763,7.3629],[81.0165,7.2334],[80.9729,7.1963],[80.9458,7.2004],[80.8504,7.1903],[80.8023,7.2051],[80.7299,7.1587],[80.6874,7.0918],[80.6271,7.0793],[80.5431,7.0758],[80.6028,6.9945],[80.578,6.9444],[80.5531,6.9405],[80.5034,7.0144],[80.4634,7.0284],[80.4558,7.1221],[80.5005,7.128],[80.5466,7.1667],[80.5126,7.213],[80.5225,7.2345],[80.4814,7.2848],[80.4265,7.3323],[80.4221,7.3552],[80.5062,7.3867],[80.5663,7.4575],[80.5877,7.4283],[80.654,7.3846],[80.6984,7.387],[80.7278,7.4746],[80.7903,7.4278],[80.8204,7.4599],[80.9742,7.4884]]]},"properties":{"district":"Kandy","iso":"LK-21"}},{"type":"Feature","geometry":{"type":"Polygon","coordinates":[[[80.9891,7.7217],[80.9947,7.6615],[80.9779,7.625],[80.9742,7.4884],[80.8204,7.4599],[80.7903,7.4278],[80.7278,7.4746],[80.6984,7.387],[80.654,7.3846],[80.5877,7.4283],[80.5663,7.4575],[80.5738,7.5087],[80.5527,7.5511],[80.5779,7.605],[80.5491,7.6422],[80.5495,7.7053],[80.4998,7.8164],[80.5998,7.8558],[80.6541,7.9152],[80.7059,7.9918],[80.7561,8.0123],[80.84,7.9722],[80.8196,7.9245],[80.7956,7.8049],[80.7612,7.7922],[80.7788,7.6779],[80.8093,7.6717],[80.8836,7.7151],[80.922,7.7083],[80.9891,7.7217]]]},"properties":{"district":"Matale","iso":"LK-22"}},{"type":"Feature","geometry":{"type":"Polygon","coordinates":[[[80.9458,7.2004],[80.9613,7.1571],[80.9556,7.0631],[80.9292,7.0382],[80.9195,6.9909],[80.8622,6.9782],[80.8354,6.9558],[80.81,6.9017],[80.8375,6.8451],[80.8084,6.7919],[80.7448,6.7583],[80.6538,6.7512],[80.501,6.7786],[80.496,6.8317],[80.4913,6.8932],[80.433,6.9136],[80.4634,7.0284],[80.5034,7.0144],[80.5531,6.9405],[80.578,6.9444],[80.6028,6.9945],[80.5431,7.0758],[80.6271,7.0793],[80.6874,7.0918],[80.7299,7.1587],[80.8023,7.2051],[80.8504,7.1903],[80.9458,7.2004]]]},"properties":{"district":"Nuwara Eliya","iso":"LK-23"}},{"type":"Feature","geometry":{"type":"Polygon","coordinates":[[[80.7658,8.937],[80.8697,8.9595],[80.9269,8.9921],[80.9061,8.9682],[80.941,8.9282],[80.9685,8.9833],[81.0301,8.8921],[81.0782,8.8622],[81.1206,8.7905],[81.1761,8.7338],[81.2227,8.6578],[81.2244,8.5759],[81.1965,8.5661],[81.1857,8.5235],[81.2036,8.4692],[81.2787,8.4652],[81.3171,8.5249],[81.3454,8.5037],[81.3619,8.458],[81.4078,8.2485],[81.3538,8.2693],[81.3116,8.252],[81.2881,8.2611],[81.2345,8.1741],[81.2015,8.1971],[81.2044,8.2269],[81.0363,8.2789],[80.9888,8.2731],[80.9818,8.3095],[80.9242,8.3369],[80.9273,8.3735],[80.9633,8.4857],[80.944,8.5518],[80.8917,8.6367],[80.9116,8.6892],[80.8788,8.7527],[80.9089,8.8365],[80.8873,8.8694],[80.8123,8.9153],[80.753,8.9051],[80.7658,8.937]]]},"properties":{"district":"Trincomalee","iso":"LK-53"}}]}